{
  "type": "FeatureCollection",
  "features": [
    {
      "type": "Feature",
      "properties": {
        "norad_id": 66843,
        "name": "STARLINK-35997",
        "group": "last-30-days",
        "lat": 2.0373662917792794,
        "lon": -8.207140080387916,
        "alt_km": 411.8806769174007,
        "timestamp": "2025-12-22T04:03:37.888155+00:00",
        "meta_object_name": "STARLINK-35997",
        "meta_object_id": "2025-280Y",
        "meta_epoch": "2025-12-21T20:00:01.999008",
        "meta_mean_motion": 15.52546147,
        "meta_eccentricity": 0.0003477,
        "meta_inclination": 70.0003,
        "meta_ra_of_asc_node": 173.4547,
        "meta_arg_of_pericenter": 274.0067,
        "meta_mean_anomaly": 187.3152,
        "meta_ephemeris_type": 0,
        "meta_classification_type": "U",
        "meta_norad_cat_id": 66843,
        "meta_element_set_no": 999,
        "meta_rev_at_epoch": 435,
        "meta_bstar": -0.0011856,
        "meta_mean_motion_dot": -0.00072521,
        "meta_mean_motion_ddot": 0,
        "tle_line1": "1 66843U 25280Y   25355.83335647 -.00072521  00000+0 -11856-2 0  9994",
        "tle_line2": "2 66843  70.0003 173.4547 0003477 274.0067 187.3152 15.52546147  4356"
      },
      "geometry": {
        "type": "Point",
        "coordinates": [
          -8.207140080387916,
          2.0373662917792794
        ]
      }
    },
    {
      "type": "Feature",
      "properties": {
        "norad_id": 66844,
        "name": "STARLINK-36073",
        "group": "last-30-days",
        "lat": 3.8361537201846545,
        "lon": -8.861522799237648,
        "alt_km": 411.75776664497243,
        "timestamp": "2025-12-22T04:03:37.888166+00:00",
        "meta_object_name": "STARLINK-36073",
        "meta_object_id": "2025-280Z",
        "meta_epoch": "2025-12-21T20:00:01.999008",
        "meta_mean_motion": 15.52545974,
        "meta_eccentricity": 0.0003343,
        "meta_inclination": 70.0001,
        "meta_ra_of_asc_node": 173.4574,
        "meta_arg_of_pericenter": 275.202,
        "meta_mean_anomaly": 184.206,
        "meta_ephemeris_type": 0,
        "meta_classification_type": "U",
        "meta_norad_cat_id": 66844,
        "meta_element_set_no": 999,
        "meta_rev_at_epoch": 435,
        "meta_bstar": -0.0012585,
        "meta_mean_motion_dot": -0.00076925,
        "meta_mean_motion_ddot": 0,
        "tle_line1": "1 66844U 25280Z   25355.83335647 -.00076925  00000+0 -12585-2 0  9997",
        "tle_line2": "2 66844  70.0001 173.4574 0003343 275.2020 184.2060 15.52545974  4350"
      },
      "geometry": {
        "type": "Point",
        "coordinates": [
          -8.861522799237648,
          3.8361537201846545
        ]
      }
    },
    {
      "type": "Feature",
      "properties": {
        "norad_id": 66845,
        "name": "STARLINK-36068",
        "group": "last-30-days",
        "lat": -3.3541778272721556,
        "lon": -6.249215558223232,
        "alt_km": 412.3170785065777,
        "timestamp": "2025-12-22T04:03:37.888178+00:00",
        "meta_object_name": "STARLINK-36068",
        "meta_object_id": "2025-280AA",
        "meta_epoch": "2025-12-21T20:00:01.999008",
        "meta_mean_motion": 15.52449815,
        "meta_eccentricity": 0.0003297,
        "meta_inclination": 70.0001,
        "meta_ra_of_asc_node": 173.447,
        "meta_arg_of_pericenter": 273.9745,
        "meta_mean_anomaly": 193.1346,
        "meta_ephemeris_type": 0,
        "meta_classification_type": "U",
        "meta_norad_cat_id": 66845,
        "meta_element_set_no": 999,
        "meta_rev_at_epoch": 435,
        "meta_bstar": 0.0014101,
        "meta_mean_motion_dot": 0.00087322,
        "meta_mean_motion_ddot": 0,
        "tle_line1": "1 66845U 25280AA  25355.83335647  .00087322  00000+0  14101-2 0  9995",
        "tle_line2": "2 66845  70.0001 173.4470 0003297 273.9745 193.1346 15.52449815  4356"
      },
      "geometry": {
        "type": "Point",
        "coordinates": [
          -6.249215558223232,
          -3.3541778272721556
        ]
      }
    },
    {
      "type": "Feature",
      "properties": {
        "norad_id": 66846,
        "name": "STARLINK-36055",
        "group": "last-30-days",
        "lat": 0.2447520133847508,
        "lon": -7.557530025136921,
        "alt_km": 411.98406475646425,
        "timestamp": "2025-12-22T04:03:37.888189+00:00",
        "meta_object_name": "STARLINK-36055",
        "meta_object_id": "2025-280AB",
        "meta_epoch": "2025-12-21T20:00:01.999008",
        "meta_mean_motion": 15.52444455,
        "meta_eccentricity": 0.0003219,
        "meta_inclination": 70.0003,
        "meta_ra_of_asc_node": 173.451,
        "meta_arg_of_pericenter": 273.5415,
        "meta_mean_anomaly": 189.739,
        "meta_ephemeris_type": 0,
        "meta_classification_type": "U",
        "meta_norad_cat_id": 66846,
        "meta_element_set_no": 999,
        "meta_rev_at_epoch": 435,
        "meta_bstar": 0.0015804,
        "meta_mean_motion_dot": 0.00098006,
        "meta_mean_motion_ddot": 0,
        "tle_line1": "1 66846U 25280AB  25355.83335647  .00098006  00000+0  15804-2 0  9998",
        "tle_line2": "2 66846  70.0003 173.4510 0003219 273.5415 189.7390 15.52444455  4353"
      },
      "geometry": {
        "type": "Point",
        "coordinates": [
          -7.557530025136921,
          0.2447520133847508
        ]
      }
    },
    {
      "type": "Feature",
      "properties": {
        "norad_id": 66847,
        "name": "STARLINK-36061",
        "group": "last-30-days",
        "lat": -1.5612741914604666,
        "lon": -6.900038953592747,
        "alt_km": 412.2019320574509,
        "timestamp": "2025-12-22T04:03:37.888199+00:00",
        "meta_object_name": "STARLINK-36061",
        "meta_object_id": "2025-280AC",
        "meta_epoch": "2025-12-21T20:00:01.999008",
        "meta_mean_motion": 15.52542433,
        "meta_eccentricity": 0.0003353,
        "meta_inclination": 70.0003,
        "meta_ra_of_asc_node": 173.4506,
        "meta_arg_of_pericenter": 274.3882,
        "meta_mean_anomaly": 190.7626,
        "meta_ephemeris_type": 0,
        "meta_classification_type": "U",
        "meta_norad_cat_id": 66847,
        "meta_element_set_no": 999,
        "meta_rev_at_epoch": 431,
        "meta_bstar": -0.0010462,
        "meta_mean_motion_dot": -0.00064067,
        "meta_mean_motion_ddot": 0,
        "tle_line1": "1 66847U 25280AC  25355.83335647 -.00064067  00000+0 -10462-2 0  9996",
        "tle_line2": "2 66847  70.0003 173.4506 0003353 274.3882 190.7626 15.52542433  4310"
      },
      "geometry": {
        "type": "Point",
        "coordinates": [
          -6.900038953592747,
          -1.5612741914604666
        ]
      }
    },
    {
      "type": "Feature",
      "properties": {
        "norad_id": 66848,
        "name": "STARLINK-36091",
        "group": "last-30-days",
        "lat": -11.598359317441684,
        "lon": -102.46515419307413,
        "alt_km": 367.05337758241967,
        "timestamp": "2025-12-22T04:03:37.888209+00:00",
        "meta_object_name": "STARLINK-36091",
        "meta_object_id": "2025-281A",
        "meta_epoch": "2025-12-21T20:00:01.999008",
        "meta_mean_motion": 15.6898229,
        "meta_eccentricity": 0.0001277,
        "meta_inclination": 43.0005,
        "meta_ra_of_asc_node": 66.8286,
        "meta_arg_of_pericenter": 286.3946,
        "meta_mean_anomaly": 172.3704,
        "meta_ephemeris_type": 0,
        "meta_classification_type": "U",
        "meta_norad_cat_id": 66848,
        "meta_element_set_no": 999,
        "meta_rev_at_epoch": 285,
        "meta_bstar": -0.018656,
        "meta_mean_motion_dot": -0.01957783,
        "meta_mean_motion_ddot": 0,
        "tle_line1": "1 66848U 25281A   25355.83335647 -.01957783  00000+0 -18656-1 0  9997",
        "tle_line2": "2 66848  43.0005  66.8286 0001277 286.3946 172.3704 15.68982290  2856"
      },
      "geometry": {
        "type": "Point",
        "coordinates": [
          -102.46515419307413,
          -11.598359317441684
        ]
      }
    },
    {
      "type": "Feature",
      "properties": {
        "norad_id": 66849,
        "name": "STARLINK-36102",
        "group": "last-30-days",
        "lat": -12.8668126776297,
        "lon": -101.00476529597128,
        "alt_km": 367.13831552263946,
        "timestamp": "2025-12-22T04:03:37.888219+00:00",
        "meta_object_name": "STARLINK-36102",
        "meta_object_id": "2025-281B",
        "meta_epoch": "2025-12-21T20:00:01.999008",
        "meta_mean_motion": 15.68973948,
        "meta_eccentricity": 0.0001288,
        "meta_inclination": 43.0004,
        "meta_ra_of_asc_node": 66.8234,
        "meta_arg_of_pericenter": 286.2097,
        "meta_mean_anomaly": 174.4726,
        "meta_ephemeris_type": 0,
        "meta_classification_type": "U",
        "meta_norad_cat_id": 66849,
        "meta_element_set_no": 999,
        "meta_rev_at_epoch": 285,
        "meta_bstar": -0.018514,
        "meta_mean_motion_dot": -0.01944005,
        "meta_mean_motion_ddot": 0,
        "tle_line1": "1 66849U 25281B   25355.83335647 -.01944005  00000+0 -18514-1 0  9994",
        "tle_line2": "2 66849  43.0004  66.8234 0001288 286.2097 174.4726 15.68973948  2854"
      },
      "geometry": {
        "type": "Point",
        "coordinates": [
          -101.00476529597128,
          -12.8668126776297
        ]
      }
    }
  ]
}